*******************************************************************************
Ephemeris / WWW_USER Mon Mar 24 08:48:34 2025 Pasadena, USA      / Horizons    
*******************************************************************************
Target body name: (2018 OG)                       {source: JPL#12}
Center body name: Earth (399)                     {source: DE441}
Center-site name: Mauna Kea
*******************************************************************************
Start time      : A.D. 2018-Sep-26 04:24:00.0000 UT      
Stop  time      : A.D. 2018-Sep-26 16:02:00.0000 UT      
Step-size       : 1 minutes
*******************************************************************************
Target pole/equ : undefined
Target radii    : undefined                                                    
Center geodetic : 204.5278, 19.8260847, 4.21024   {E-lon(deg),Lat(deg),Alt(km)}
Center cylindric: 204.5278, 6006.35451, 2151.0229 {E-lon(deg),Dxy(km),Dz(km)}
Center pole/equ : ITRF93                          {East-longitude positive}
Center radii    : 6378.137, 6378.137, 6356.752 km {Equator_a, b, pole_c}       
Target primary  : Sun
Vis. interferer : MOON (R_eq= 1737.400) km        {source: DE441}
Rel. light bend : Sun                             {source: DE441}
Rel. lght bnd GM: 1.3271E+11 km^3/s^2                                          
Small-body perts: Yes                             {source: SB441-N16}
Atmos refraction: NO (AIRLESS)
RA format       : HMS
Time format     : CAL 
Calendar mode   : Mixed Julian/Gregorian
RTS-only print  : NO       
EOP file        : eop.250321.p250617                                           
EOP coverage    : DATA-BASED 1962-JAN-20 TO 2025-MAR-21. PREDICTS-> 2025-JUN-16
Units conversion: 1 au= 149597870.700 km, c= 299792.458 km/s, 1 day= 86400.0 s 
Table cut-offs 1: Elevation (-90.0deg=NO ),Airmass (>38.000=NO), Daylight (YES)
Table cut-offs 2: Solar elongation (  0.0,180.0=NO ),Local Hour Angle( 0.0=NO )
Table cut-offs 3: RA/DEC angular rate (     0.0=NO )                           
*******************************************************************************
Initial IAU76/J2000 heliocentric ecliptic osculating elements (au, days, deg.):
  EPOCH=  2458389.5 ! 2018-Sep-28.00 (TDB)         Residual RMS= .17662        
   EC= .5817218672922059   QR= .9873203561553971   TP= 2458366.942240702       
   OM= 131.0345430575832   W=  220.7633135105564   IN= 9.123860581277821       
  Equivalent ICRF heliocentric cartesian coordinates (au, au/d):
   X= 9.625437195102586E-01  Y= 3.686106454146055E-01  Z=-5.877845729655690E-03
  VX=-3.555418036941177E-03 VY= 1.979451357965206E-02 VZ= 6.659913004156397E-03
Asteroid physical parameters (km, seconds, rotational period in hours):        
   GM= n.a.                RAD= n.a.               ROTPER= n.a.                
   H= 23.6                 G= .150                 B-V= n.a.                   
                           ALBEDO= n.a.            STYP= n.a.                  
*******************************************************************************
 Date__(UT)__HR:MN     R.A._________(ICRF)_________DEC
******************************************************
$$SOE
 2018-Sep-26 14:39  m  06 26 35.723315 -07 19 14.28535
 2018-Sep-26 14:40  m  06 26 35.763354 -07 19 14.08921
 2018-Sep-26 14:41  m  06 26 35.803375 -07 19 13.89300
 2018-Sep-26 14:42  m  06 26 35.843378 -07 19 13.69674
 2018-Sep-26 14:43  m  06 26 35.883364 -07 19 13.50042
 2018-Sep-26 14:44  m  06 26 35.923333 -07 19 13.30404
 2018-Sep-26 14:45  m  06 26 35.963285 -07 19 13.10760
 2018-Sep-26 14:46  m  06 26 36.003219 -07 19 12.91111
 2018-Sep-26 14:47  m  06 26 36.043137 -07 19 12.71456
 2018-Sep-26 14:48  m  06 26 36.083038 -07 19 12.51795
 2018-Sep-26 14:49  m  06 26 36.122922 -07 19 12.32128
 2018-Sep-26 14:50  m  06 26 36.162791 -07 19 12.12455
 2018-Sep-26 14:51  m  06 26 36.202642 -07 19 11.92777
 2018-Sep-26 14:52  m  06 26 36.242478 -07 19 11.73093
 2018-Sep-26 14:53  m  06 26 36.282298 -07 19 11.53402
 2018-Sep-26 14:54  m  06 26 36.322102 -07 19 11.33706
 2018-Sep-26 14:55  m  06 26 36.361890 -07 19 11.14004
 2018-Sep-26 14:56  m  06 26 36.401663 -07 19 10.94296
 2018-Sep-26 14:57  m  06 26 36.441420 -07 19 10.74583
 2018-Sep-26 14:58  m  06 26 36.481162 -07 19 10.54863
 2018-Sep-26 14:59 Am  06 26 36.520889 -07 19 10.35137
 2018-Sep-26 15:00 Am  06 26 36.560601 -07 19 10.15406
 2018-Sep-26 15:01 Am  06 26 36.600298 -07 19 09.95668
 2018-Sep-26 15:02 Am  06 26 36.639981 -07 19 09.75924
 2018-Sep-26 15:03 Am  06 26 36.679649 -07 19 09.56175
 2018-Sep-26 15:04 Am  06 26 36.719302 -07 19 09.36419
 2018-Sep-26 15:05 Am  06 26 36.758942 -07 19 09.16658
 2018-Sep-26 15:06 Am  06 26 36.798567 -07 19 08.96890
 2018-Sep-26 15:07 Am  06 26 36.838178 -07 19 08.77116
 2018-Sep-26 15:08 Am  06 26 36.877776 -07 19 08.57337
 2018-Sep-26 15:09 Am  06 26 36.917360 -07 19 08.37551
 2018-Sep-26 15:10 Am  06 26 36.956931 -07 19 08.17759
 2018-Sep-26 15:11 Am  06 26 36.996488 -07 19 07.97961
 2018-Sep-26 15:12 Am  06 26 37.036032 -07 19 07.78157
 2018-Sep-26 15:13 Am  06 26 37.075563 -07 19 07.58347
 2018-Sep-26 15:14 Am  06 26 37.115081 -07 19 07.38531
 2018-Sep-26 15:15 Am  06 26 37.154587 -07 19 07.18709
 2018-Sep-26 15:16 Am  06 26 37.194080 -07 19 06.98880
 2018-Sep-26 15:17 Am  06 26 37.233560 -07 19 06.79046
 2018-Sep-26 15:18 Am  06 26 37.273029 -07 19 06.59205
 2018-Sep-26 15:19 Am  06 26 37.312485 -07 19 06.39358
 2018-Sep-26 15:20 Am  06 26 37.351929 -07 19 06.19505
 2018-Sep-26 15:21 Am  06 26 37.391361 -07 19 05.99646
 2018-Sep-26 15:22 Am  06 26 37.430782 -07 19 05.79781
 2018-Sep-26 15:23 Am  06 26 37.470191 -07 19 05.59909
 2018-Sep-26 15:24 Am  06 26 37.509589 -07 19 05.40031
 2018-Sep-26 15:25 Nm  06 26 37.548975 -07 19 05.20148
 2018-Sep-26 15:26 Nm  06 26 37.588351 -07 19 05.00257
 2018-Sep-26 15:27 Nm  06 26 37.627715 -07 19 04.80361
 2018-Sep-26 15:28 Nm  06 26 37.667069 -07 19 04.60458
 2018-Sep-26 15:29 Nm  06 26 37.706413 -07 19 04.40550
 2018-Sep-26 15:30 Nm  06 26 37.745745 -07 19 04.20635
 2018-Sep-26 15:31 Nm  06 26 37.785068 -07 19 04.00713
 2018-Sep-26 15:32 Nm  06 26 37.824380 -07 19 03.80786
 2018-Sep-26 15:33 Nm  06 26 37.863683 -07 19 03.60852
 2018-Sep-26 15:34 Nm  06 26 37.902975 -07 19 03.40912
 2018-Sep-26 15:35 Nm  06 26 37.942258 -07 19 03.20965
 2018-Sep-26 15:36 Nm  06 26 37.981532 -07 19 03.01013
 2018-Sep-26 15:37 Nm  06 26 38.020796 -07 19 02.81054
 2018-Sep-26 15:38 Nm  06 26 38.060051 -07 19 02.61088
 2018-Sep-26 15:39 Nm  06 26 38.099296 -07 19 02.41117
 2018-Sep-26 15:40 Nm  06 26 38.138533 -07 19 02.21139
 2018-Sep-26 15:41 Nm  06 26 38.177761 -07 19 02.01155
 2018-Sep-26 15:42 Nm  06 26 38.216981 -07 19 01.81164
 2018-Sep-26 15:43 Nm  06 26 38.256192 -07 19 01.61167
 2018-Sep-26 15:44 Nm  06 26 38.295395 -07 19 01.41164
 2018-Sep-26 15:45 Nm  06 26 38.334590 -07 19 01.21154
 2018-Sep-26 15:46 Nm  06 26 38.373776 -07 19 01.01138
 2018-Sep-26 15:47 Nm  06 26 38.412955 -07 19 00.81116
 2018-Sep-26 15:48 Nm  06 26 38.452127 -07 19 00.61088
 2018-Sep-26 15:49 Nm  06 26 38.491290 -07 19 00.41053
 2018-Sep-26 15:50 Cm  06 26 38.530447 -07 19 00.21011
 2018-Sep-26 15:51 Cm  06 26 38.569596 -07 19 00.00963
 2018-Sep-26 15:52 Cm  06 26 38.608738 -07 18 59.80909
 2018-Sep-26 15:53 Cm  06 26 38.647873 -07 18 59.60849
 2018-Sep-26 15:54 Cm  06 26 38.687002 -07 18 59.40782
 2018-Sep-26 15:55 Cm  06 26 38.726124 -07 18 59.20709
 2018-Sep-26 15:56 Cm  06 26 38.765240 -07 18 59.00629
 2018-Sep-26 15:57 Cm  06 26 38.804349 -07 18 58.80543
 2018-Sep-26 15:58 Cm  06 26 38.843452 -07 18 58.60450
 2018-Sep-26 15:59 Cm  06 26 38.882550 -07 18 58.40351
 2018-Sep-26 16:00 Cm  06 26 38.921641 -07 18 58.20246
 2018-Sep-26 16:01 Cm  06 26 38.960727 -07 18 58.00134
 2018-Sep-26 16:02 Cm  06 26 38.999808 -07 18 57.80016
